H1 CPF 01  gfz 2021 05 24 12  6442 terrasarx 
H2 0702601  6201 31698    2021 05 24 12 59 42 2021 05 29 00 00 42   120 1 1  0 0 0
H9
10 0 59360  72702.000000  0    4293710.803  -1964430.017  -5023762.186
10 0 59360  72822.000000  0    4754921.249  -2415914.942  -4368250.289
10 0 59360  72942.000000  0    5125835.361  -2832661.517  -3636224.467
10 0 59360  73062.000000  0    5400592.052  -3205737.194  -2840438.967
10 0 59360  73182.000000  0    5575147.208  -3526870.922  -1994796.771
10 0 59360  73302.000000  0    5647341.321  -3788635.546  -1114108.463
10 0 59360  73422.000000  0    5616930.900  -3984617.660   -213831.351
10 0 59360  73542.000000  0    5485581.816  -4109569.479    690206.905
10 0 59360  73662.000000  0    5256823.798  -4159539.639   1582094.444
10 0 59360  73782.000000  0    4935966.306  -4131977.732   2446124.935
10 0 59360  73902.000000  0    4529978.317  -4025808.909   3267082.560
10 0 59360  74022.000000  0    4047336.533  -3841478.991   4030516.283
10 0 59360  74142.000000  0    3497845.387  -3580969.168   4722999.383
10 0 59360  74262.000000  0    2892431.472  -3247778.301   5332367.747
10 0 59360  74382.000000  0    2242921.113  -2846874.246   5847931.946
10 0 59360  74502.000000  0    1561804.096  -2384616.051   6260661.375
10 0 59360  74622.000000  0     861989.535  -1868649.311   6563336.259
10 0 59360  74742.000000  0     156559.120  -1307776.653   6750667.875
10 0 59360  74862.000000  0    -541477.776   -711805.388   6819385.361
10 0 59360  74982.000000  0   -1219423.043    -91375.003   6768288.605
10 0 59360  75102.000000  0   -1865119.783    542232.375   6598267.893
10 0 59360  75222.000000  0   -2467169.584   1177296.479   6312289.469
10 0 59360  75342.000000  0   -3015134.100   1801874.667   5915347.180
10 0 59360  75462.000000  0   -3499717.806   2404025.989   5414381.225
10 0 59360  75582.000000  0   -3912929.874   2972040.763   4818163.504
10 0 59360  75702.000000  0   -4248220.915   3494670.557   4137149.354
10 0 59360  75822.000000  0   -4500592.674   3961354.155   3383298.689
10 0 59360  75942.000000  0   -4666677.501   4362434.896   2569867.681
10 0 59360  76062.000000  0   -4744784.588   4689365.049   1711174.672
10 0 59360  76182.000000  0   -4734912.181   4934890.829    822343.547
10 0 59360  76302.000000  0   -4638726.015   5093212.196    -80969.063
10 0 59360  76422.000000  0   -4459504.857   5160115.990   -982857.453
10 0 59360  76542.000000  0   -4202051.551   5133077.352  -1867458.236
10 0 59360  76662.000000  0   -3872571.765   5011324.765  -2719237.233
10 0 59360  76782.000000  0   -3478527.930   4795870.594  -3523269.059
10 0 59360  76902.000000  0   -3028468.546   4489503.652  -4265501.276
10 0 59360  77022.000000  0   -2531840.222   4096747.154  -4932997.493
10 0 59360  77142.000000  0   -1998787.495   3623784.823  -5514156.086
10 0 59360  77262.000000  0   -1439944.995   3078356.884  -5998904.047
10 0 59360  77382.000000  0    -866225.031   2469626.297  -6378862.035
10 0 59360  77502.000000  0    -288605.882   1808019.846  -6647477.360
10 0 59360  77622.000000  0     282074.541   1105048.339  -6800125.791
10 0 59360  77742.000000  0     835316.783    373108.204  -6834183.148
10 0 59360  77862.000000  0    1361149.135   -374733.152  -6749066.220
10 0 59360  77982.000000  0    1850302.972  -1124965.943  -6546240.117
10 0 59360  78102.000000  0    2294371.995  -1863875.457  -6229195.498
10 0 59360  78222.000000  0    2685954.988  -2577786.411  -5803395.196
10 0 59360  78342.000000  0    3018779.508  -3253312.198  -5276191.575
10 0 59360  78462.000000  0    3287805.545  -3877606.928  -4656710.261
10 0 59360  78582.000000  0    3489303.886  -4438610.687  -3955701.047
10 0 59360  78702.000000  0    3620909.863  -4925285.357  -3185362.126
10 0 59360  78822.000000  0    3681652.594  -5327838.825  -2359136.518
10 0 59360  78942.000000  0    3671955.689  -5637930.582  -1491480.492
10 0 59360  79062.000000  0    3593609.901  -5848851.311   -597610.341
10 0 59360  79182.000000  0    3449717.526  -5955673.685    306769.040
10 0 59360  79302.000000  0    3244608.634  -5955368.183   1205746.709
10 0 59360  79422.000000  0    2983733.345  -5846882.463   2083494.343
10 0 59360  79542.000000  0    2673530.136  -5631178.735   2924555.042
10 0 59360  79662.000000  0    2321274.425  -5311230.526   3714122.455
10 0 59360  79782.000000  0    1934912.859  -4891980.077   4438306.319
10 0 59360  79902.000000  0    1522886.616  -4380256.359   5084380.022
10 0 59360  80022.000000  0    1093949.016  -3784656.345   5641004.568
10 0 59360  80142.000000  0     656979.490  -3115391.503   6098425.986
10 0 59360  80262.000000  0     220799.857  -2384104.402   6448639.776
10 0 59360  80382.000000  0    -206002.492  -1603661.022   6685523.878
10 0 59360  80502.000000  0    -615241.966   -787922.234   6804939.981
10 0 59360  80622.000000  0    -999290.503     48503.919   6804802.486
10 0 59360  80742.000000  0   -1351218.987    890524.198   6685112.511
10 0 59360  80862.000000  0   -1664921.806   1722831.881   6447957.546
10 0 59360  80982.000000  0   -1935223.032   2530184.102   6097477.494
10 0 59360  81102.000000  0   -2157962.552   3297681.294   5639796.774
10 0 59360  81222.000000  0   -2330060.484   4011043.774   5082923.261
10 0 59360  81342.000000  0   -2449559.984   4656882.017   4436615.289
10 0 59360  81462.000000  0   -2515646.510   5222954.999   3712215.708
10 0 59360  81582.000000  0   -2528643.103   5698410.654   2922455.364
10 0 59360  81702.000000  0   -2489981.191   6074002.026   2081229.021
10 0 59360  81822.000000  0   -2402148.075   6342274.996   1203348.409
10 0 59360  81942.000000  0   -2268611.504   6497722.555    304276.114
10 0 59360  82062.000000  0   -2093723.525   6536901.456   -600154.138
10 0 59360  82182.000000  0   -1882606.317   6458508.620  -1494025.644
10 0 59360  82302.000000  0   -1641021.414   6263412.502  -2361630.865
10 0 59360  82422.000000  0   -1375226.191   5954636.519  -3187754.410
10 0 59360  82542.000000  0   -1091823.443   5537302.767  -3957941.561
10 0 59360  82662.000000  0    -797607.479   5018535.983  -4658751.330
10 0 59360  82782.000000  0    -499409.887   4407329.769  -5277986.818
10 0 59360  82902.000000  0    -203948.363   3714380.567  -5804900.877
10 0 59360  83022.000000  0      82318.297   2951891.085  -6230374.084
10 0 59360  83142.000000  0     353325.195   2133348.302  -6547061.071
10 0 59360  83262.000000  0     603523.842   1273283.212  -6749505.626
10 0 59360  83382.000000  0     827991.108    387014.375  -6834225.809
10 0 59360  83502.000000  0    1022522.364   -509620.810  -6799767.120
10 0 59360  83622.000000  0    1183707.500  -1400543.555  -6646723.719
10 0 59360  83742.000000  0    1308989.014  -2269713.945  -6377727.940
10 0 59360  83862.000000  0    1396702.337  -3101411.982  -5997411.102
10 0 59360  83982.000000  0    1446097.237  -3880518.646  -5512333.991
10 0 59360  84102.000000  0    1457338.989  -4592791.374  -4930883.432
10 0 59360  84222.000000  0    1431491.023  -5225126.038  -4263137.796
10 0 59360  84342.000000  0    1370477.781  -5765804.763  -3520703.881
10 0 59360  84462.000000  0    1277027.759  -6204722.963  -2716523.168
10 0 59360  84582.000000  0    1154599.236  -6533589.505  -1864651.525
10 0 59360  84702.000000  0    1007289.476  -6746095.742   -980014.903
10 0 59360  84822.000000  0     839728.272  -6838047.651    -78145.077
10 0 59360  84942.000000  0     656959.502  -6807456.760    825098.576
10 0 59360  85062.000000  0     464313.465  -6654588.220   1713815.402
10 0 59360  85182.000000  0     267273.081  -6381963.875   2572352.942
10 0 59360  85302.000000  0      71337.379  -5994318.152   3385592.730
10 0 59360  85422.000000  0    -118114.771  -5498507.930   4139223.021
10 0 59360  85542.000000  0    -295956.523  -4903382.962   4819993.572
10 0 59360  85662.000000  0    -457437.055  -4219618.099   5415950.007
10 0 59360  85782.000000  0    -598294.672  -3459512.169   5916642.306
10 0 59360  85902.000000  0    -714857.116  -2636756.583   6313304.590
10 0 59360  86022.000000  0    -804126.703  -1766181.307   6599000.791
10 0 59360  86142.000000  0    -863848.929   -863485.044   6768739.277
10 0 59360  86262.000000  0    -892563.889     55049.355   6819556.157
10 0 59360  86382.000000  0    -889639.247    972849.138   6750564.005
10 0 59361    102.000000  0    -855283.118   1873350.262   6562966.359
10 0 59361    222.000000  0    -790537.474   2740295.708   6260037.915
10 0 59361    342.000000  0    -697252.645   3558029.117   5847071.173
10 0 59361    462.000000  0    -578043.221   4311779.925   5331289.085
10 0 59361    582.000000  0    -436225.604   4987934.033   4721724.819
10 0 59361    702.000000  0    -275738.829   5574287.939   4029069.576
10 0 59361    822.000000  0    -101049.133   6060276.212   3265487.589
10 0 59361    942.000000  0      82957.469   6437172.406   2444408.044
10 0 59361   1062.000000  0     271094.921   6698259.985   1580284.821
10 0 59361   1182.000000  0     458006.275   6838957.988    688335.899
10 0 59361   1302.000000  0     638297.710   6856906.657   -215731.137
10 0 59361   1422.000000  0     806674.559   6752008.589  -1116004.582
10 0 59361   1542.000000  0     958074.394   6526423.349  -1996657.391
10 0 59361   1662.000000  0    1087794.419   6184517.825  -2842232.493
10 0 59361   1782.000000  0    1191610.874   5732773.156  -3637919.287
10 0 59361   1902.000000  0    1265887.510   5179650.848  -4369815.372
10 0 59361   2022.000000  0    1307670.303   4535421.829  -5025168.101
10 0 59361   2142.000000  0    1314766.267   3811963.685  -5592590.862
10 0 59361   2262.000000  0    1285804.576   3022532.686  -6062252.437
10 0 59361   2382.000000  0    1220279.272   2181513.673  -6426037.002
10 0 59361   2502.000000  0    1118572.756   1304155.331  -6677671.861
10 0 59361   2622.000000  0     981960.399    406295.631  -6812825.878
10 0 59361   2742.000000  0     812595.954   -495920.350  -6829176.189
99
